TIANMU-1 08             
1 57400U 23101B   26066.00237819  .00000346  00000+0  14775-4 0  9993
2 57400  97.2717 118.7901 0006380 134.2174 225.9592 15.29204229146020
STARLINK-30204          
1 57472U 23107R   26068.14147862  .00001393  00000+0  61620-4 0  9997
2 57472  43.0031 339.1618 0001825  10.6068 349.4822 15.26731738145067
